[{"OBJECT_NAME":"STARLINK-30312","OBJECT_ID":"2023-122K","EPOCH":"2025-12-25T18:46:55.172928","MEAN_MOTION":15.02525668,"ECCENTRICITY":0.0001738,"INCLINATION":43.003,"RA_OF_ASC_NODE":136.2829,"ARG_OF_PERICENTER":278.3621,"MEAN_ANOMALY":81.7025,"EPHEMERIS_TYPE":0,"CLASSIFICATION_TYPE":"U","NORAD_CAT_ID":57641,"ELEMENT_SET_NO":999,"REV_AT_EPOCH":13106,"BSTAR":5.5015e-5,"MEAN_MOTION_DOT":5.39e-6,"MEAN_MOTION_DDOT":0},{"OBJECT_NAME":"STARLINK-30263","OBJECT_ID":"2023-122L","EPOCH":"2025-12-25T18:37:20.601696","MEAN_MOTION":15.02524427,"ECCENTRICITY":9.29e-5,"INCLINATION":43.0034,"RA_OF_ASC_NODE":136.2311,"ARG_OF_PERICENTER":244.3344,"MEAN_ANOMALY":115.7402,"EPHEMERIS_TYPE":0,"CLASSIFICATION_TYPE":"U","NORAD_CAT_ID":57642,"ELEMENT_SET_NO":999,"REV_AT_EPOCH":13106,"BSTAR":0.00041429,"MEAN_MOTION_DOT":5.395e-5,"MEAN_MOTION_DDOT":0},{"OBJECT_NAME":"STARLINK-30280","OBJECT_ID":"2023-122M","EPOCH":"2025-12-25T10:24:17.703072","MEAN_MOTION":15.02531323,"ECCENTRICITY":0.0001577,"INCLINATION":43.0017,"RA_OF_ASC_NODE":137.9561,"ARG_OF_PERICENTER":259.5934,"MEAN_ANOMALY":100.4731,"EPHEMERIS_TYPE":0,"CLASSIFICATION_TYPE":"U","NORAD_CAT_ID":57643,"ELEMENT_SET_NO":999,"REV_AT_EPOCH":13101,"BSTAR":-3.4281e-5,"MEAN_MOTION_DOT":-6.67e-6,"MEAN_MOTION_DDOT":0},{"OBJECT_NAME":"STARLINK-30247","OBJECT_ID":"2023-122N","EPOCH":"2025-12-25T18:27:44.085600","MEAN_MOTION":15.02546918,"ECCENTRICITY":0.0001812,"INCLINATION":43.0025,"RA_OF_ASC_NODE":136.1808,"ARG_OF_PERICENTER":249.8457,"MEAN_ANOMALY":110.219,"EPHEMERIS_TYPE":0,"CLASSIFICATION_TYPE":"U","NORAD_CAT_ID":57644,"ELEMENT_SET_NO":999,"REV_AT_EPOCH":13106,"BSTAR":8.4698e-5,"MEAN_MOTION_DOT":9.41e-6,"MEAN_MOTION_DDOT":0},{"OBJECT_NAME":"STARLINK-30277","OBJECT_ID":"2023-122P","EPOCH":"2025-12-24T11:20:29.008608","MEAN_MOTION":15.2757745,"ECCENTRICITY":0.00014713,"INCLINATION":43.0012,"RA_OF_ASC_NODE":15.1877,"ARG_OF_PERICENTER":271.9807,"MEAN_ANOMALY":88.0876,"EPHEMERIS_TYPE":0,"CLASSIFICATION_TYPE":"U","NORAD_CAT_ID":57645,"ELEMENT_SET_NO":999,"REV_AT_EPOCH":13237,"BSTAR":-4.4701968e-5,"MEAN_MOTION_DOT":-1.492e-5,"MEAN_MOTION_DDOT":0},{"OBJECT_NAME":"STARLINK-30265","OBJECT_ID":"2023-122Q","EPOCH":"2025-12-25T02:44:51.186048","MEAN_MOTION":15.02524007,"ECCENTRICITY":0.0001078,"INCLINATION":43.0018,"RA_OF_ASC_NODE":139.8684,"ARG_OF_PERICENTER":264.5392,"MEAN_ANOMALY":95.5327,"EPHEMERIS_TYPE":0,"CLASSIFICATION_TYPE":"U","NORAD_CAT_ID":57646,"ELEMENT_SET_NO":999,"REV_AT_EPOCH":13096,"BSTAR":0.00013886,"MEAN_MOTION_DOT":1.672e-5,"MEAN_MOTION_DDOT":0},{"OBJECT_NAME":"STARLINK-30286","OBJECT_ID":"2023-122R","EPOCH":"2025-12-25T10:19:30.068832","MEAN_MOTION":15.0253447,"ECCENTRICITY":0.0001627,"INCLINATION":43.0033,"RA_OF_ASC_NODE":137.9371,"ARG_OF_PERICENTER":268.6743,"MEAN_ANOMALY":91.3913,"EPHEMERIS_TYPE":0,"CLASSIFICATION_TYPE":"U","NORAD_CAT_ID":57647,"ELEMENT_SET_NO":999,"REV_AT_EPOCH":13101,"BSTAR":9.0173e-5,"MEAN_MOTION_DOT":1.015e-5,"MEAN_MOTION_DDOT":0},{"OBJECT_NAME":"STARLINK-30243","OBJECT_ID":"2023-122S","EPOCH":"2025-12-25T16:23:13.721280","MEAN_MOTION":15.02534887,"ECCENTRICITY":0.0001155,"INCLINATION":42.9998,"RA_OF_ASC_NODE":136.3877,"ARG_OF_PERICENTER":261.8011,"MEAN_ANOMALY":98.2701,"EPHEMERIS_TYPE":0,"CLASSIFICATION_TYPE":"U","NORAD_CAT_ID":57648,"ELEMENT_SET_NO":999,"REV_AT_EPOCH":13105,"BSTAR":6.2271e-5,"MEAN_MOTION_DOT":6.38e-6,"MEAN_MOTION_DDOT":0},{"OBJECT_NAME":"STARLINK-30299","OBJECT_ID":"2023-122U","EPOCH":"2025-12-25T08:38:58.443360","MEAN_MOTION":15.02531125,"ECCENTRICITY":0.0001279,"INCLINATION":43.002,"RA_OF_ASC_NODE":138.2727,"ARG_OF_PERICENTER":274.7934,"MEAN_ANOMALY":85.2762,"EPHEMERIS_TYPE":0,"CLASSIFICATION_TYPE":"U","NORAD_CAT_ID":57650,"ELEMENT_SET_NO":999,"REV_AT_EPOCH":13100,"BSTAR":9.5615e-5,"MEAN_MOTION_DOT":1.088e-5,"MEAN_MOTION_DDOT":0},{"OBJECT_NAME":"STARLINK-30294","OBJECT_ID":"2023-122V","EPOCH":"2025-12-25T14:52:43.241088","MEAN_MOTION":15.02534416,"ECCENTRICITY":0.0001471,"INCLINATION":43.0041,"RA_OF_ASC_NODE":124.0615,"ARG_OF_PERICENTER":265.9111,"MEAN_ANOMALY":94.1563,"EPHEMERIS_TYPE":0,"CLASSIFICATION_TYPE":"U","NORAD_CAT_ID":57651,"ELEMENT_SET_NO":999,"REV_AT_EPOCH":13119,"BSTAR":4.9397e-6,"MEAN_MOTION_DOT":-1.37e-6,"MEAN_MOTION_DDOT":0},{"OBJECT_NAME":"STARLINK-30276","OBJECT_ID":"2023-122W","EPOCH":"2025-12-25T02:06:28.177632","MEAN_MOTION":15.02528591,"ECCENTRICITY":0.00013514,"INCLINATION":43.0048,"RA_OF_ASC_NODE":139.6635,"ARG_OF_PERICENTER":267.4712,"MEAN_ANOMALY":92.5976,"EPHEMERIS_TYPE":0,"CLASSIFICATION_TYPE":"U","NORAD_CAT_ID":57652,"ELEMENT_SET_NO":999,"REV_AT_EPOCH":13096,"BSTAR":0.00018228252,"MEAN_MOTION_DOT":2.259e-5,"MEAN_MOTION_DDOT":0},{"OBJECT_NAME":"STARLINK-30289","OBJECT_ID":"2023-122X","EPOCH":"2025-12-25T16:33:15.410880","MEAN_MOTION":15.02518338,"ECCENTRICITY":0.0002096,"INCLINATION":43.0043,"RA_OF_ASC_NODE":123.6742,"ARG_OF_PERICENTER":266.4838,"MEAN_ANOMALY":93.5765,"EPHEMERIS_TYPE":0,"CLASSIFICATION_TYPE":"U","NORAD_CAT_ID":57653,"ELEMENT_SET_NO":999,"REV_AT_EPOCH":13120,"BSTAR":-7.3782e-5,"MEAN_MOTION_DOT":-1.2e-5,"MEAN_MOTION_DDOT":0},{"OBJECT_NAME":"STARLINK-30267","OBJECT_ID":"2023-124A","EPOCH":"2025-12-25T19:29:41.927712","MEAN_MOTION":15.30197503,"ECCENTRICITY":0.0001385,"INCLINATION":53.1602,"RA_OF_ASC_NODE":190.182,"ARG_OF_PERICENTER":80.5872,"MEAN_ANOMALY":279.5285,"EPHEMERIS_TYPE":0,"CLASSIFICATION_TYPE":"U","NORAD_CAT_ID":57663,"ELEMENT_SET_NO":999,"REV_AT_EPOCH":13225,"BSTAR":2.0119e-5,"MEAN_MOTION_DOT":2.37e-6,"MEAN_MOTION_DDOT":0},{"OBJECT_NAME":"STARLINK-30298","OBJECT_ID":"2023-124C","EPOCH":"2025-12-25T19:32:44.567808","MEAN_MOTION":15.30194444,"ECCENTRICITY":0.0001154,"INCLINATION":53.1594,"RA_OF_ASC_NODE":190.2127,"ARG_OF_PERICENTER":80.4382,"MEAN_ANOMALY":279.6749,"EPHEMERIS_TYPE":0,"CLASSIFICATION_TYPE":"U","NORAD_CAT_ID":57665,"ELEMENT_SET_NO":999,"REV_AT_EPOCH":13225,"BSTAR":2.9793e-5,"MEAN_MOTION_DOT":5.23e-6,"MEAN_MOTION_DDOT":0},{"OBJECT_NAME":"STARLINK-30301","OBJECT_ID":"2023-124D","EPOCH":"2025-12-25T10:40:26.541696","MEAN_MOTION":15.30183794,"ECCENTRICITY":9.66e-5,"INCLINATION":53.1606,"RA_OF_ASC_NODE":253.5994,"ARG_OF_PERICENTER":89.4304,"MEAN_ANOMALY":270.6808,"EPHEMERIS_TYPE":0,"CLASSIFICATION_TYPE":"U","NORAD_CAT_ID":57666,"ELEMENT_SET_NO":999,"REV_AT_EPOCH":13130,"BSTAR":2.9296e-5,"MEAN_MOTION_DOT":5.08e-6,"MEAN_MOTION_DDOT":0},{"OBJECT_NAME":"STARLINK-30275","OBJECT_ID":"2023-124E","EPOCH":"2025-12-25T16:51:56.776608","MEAN_MOTION":15.30194761,"ECCENTRICITY":0.0001355,"INCLINATION":53.1594,"RA_OF_ASC_NODE":190.7349,"ARG_OF_PERICENTER":98.5585,"MEAN_ANOMALY":261.5569,"EPHEMERIS_TYPE":0,"CLASSIFICATION_TYPE":"U","NORAD_CAT_ID":57667,"ELEMENT_SET_NO":999,"REV_AT_EPOCH":13223,"BSTAR":4.0922e-5,"MEAN_MOTION_DOT":8.53e-6,"MEAN_MOTION_DDOT":0},{"OBJECT_NAME":"STARLINK-30278","OBJECT_ID":"2023-124F","EPOCH":"2025-12-25T18:18:23.958720","MEAN_MOTION":15.30198176,"ECCENTRICITY":0.0001249,"INCLINATION":53.1569,"RA_OF_ASC_NODE":190.4258,"ARG_OF_PERICENTER":88.7917,"MEAN_ANOMALY":271.3227,"EPHEMERIS_TYPE":0,"CLASSIFICATION_TYPE":"U","NORAD_CAT_ID":57668,"ELEMENT_SET_NO":999,"REV_AT_EPOCH":13224,"BSTAR":-3.9546e-6,"MEAN_MOTION_DOT":-4.76e-6,"MEAN_MOTION_DDOT":0}]
