STARLINK-30312          
1 57641U 23122K   25359.78258302  .00000539  00000+0  55015-4 0  9998
2 57641  43.0030 136.2829 0001738 278.3621  81.7025 15.02525668131068
STARLINK-30263          
1 57642U 23122L   25359.77593289  .00005395  00000+0  41429-3 0  9992
2 57642  43.0034 136.2311 0000929 244.3344 115.7402 15.02524427131064
STARLINK-30280          
1 57643U 23122M   25359.43353823 -.00000667  00000+0 -34281-4 0  9992
2 57643  43.0017 137.9561 0001577 259.5934 100.4731 15.02531323131018
STARLINK-30247          
1 57644U 23122N   25359.76926025  .00000941  00000+0  84698-4 0  9999
2 57644  43.0025 136.1808 0001812 249.8457 110.2190 15.02546918131066
STARLINK-30277          
1 57645U 23122P   25358.47255797 -.00001492  00000+0 -44702-4 0  9994
2 57645  43.0012  15.1877 0001471 271.9807  88.0876 15.27577450132371
STARLINK-30265          
1 57646U 23122Q   25359.11448132  .00001672  00000+0  13886-3 0  9990
2 57646  43.0018 139.8684 0001078 264.5392  95.5327 15.02524007130968
STARLINK-30286          
1 57647U 23122R   25359.43020913  .00001015  00000+0  90173-4 0  9995
2 57647  43.0033 137.9371 0001627 268.6743  91.3913 15.02534470131010
STARLINK-30243          
1 57648U 23122S   25359.68279770  .00000638  00000+0  62271-4 0  9998
2 57648  42.9998 136.3877 0001155 261.8011  98.2701 15.02534887131059
STARLINK-30299          
1 57650U 23122U   25359.36039865  .00001088  00000+0  95615-4 0  9993
2 57650  43.0020 138.2727 0001279 274.7934  85.2762 15.02531125131009
STARLINK-30294          
1 57651U 23122V   25359.61994492 -.00000137  00000+0  49397-5 0  9990
2 57651  43.0041 124.0615 0001471 265.9111  94.1563 15.02534416131199
STARLINK-30276          
1 57652U 23122W   25359.08782613  .00002259  00000+0  18228-3 0  9995
2 57652  43.0048 139.6635 0001351 267.4712  92.5976 15.02528591130963
STARLINK-30289          
1 57653U 23122X   25359.68976170 -.00001200  00000+0 -73782-4 0  9999
2 57653  43.0043 123.6742 0002096 266.4838  93.5765 15.02518338131209
STARLINK-30267          
1 57663U 23124A   25359.81229083  .00000237  00000+0  20119-4 0  9994
2 57663  53.1602 190.1820 0001385  80.5872 279.5285 15.30197503132259
STARLINK-30298          
1 57665U 23124C   25359.81440472  .00000523  00000+0  29793-4 0  9998
2 57665  53.1594 190.2127 0001154  80.4382 279.6749 15.30194444132258
STARLINK-30301          
1 57666U 23124D   25359.44475164  .00000508  00000+0  29296-4 0  9995
2 57666  53.1606 253.5994 0000966  89.4304 270.6808 15.30183794131309
STARLINK-30275          
1 57667U 23124E   25359.70274047  .00000853  00000+0  40922-4 0  9994
2 57667  53.1594 190.7349 0001355  98.5585 261.5569 15.30194761132239
STARLINK-30278          
1 57668U 23124F   25359.76277730 -.00000476  00000+0 -39546-5 0  9997
2 57668  53.1569 190.4258 0001249  88.7917 271.3227 15.30198176132245
